STARLINK-36772          
1 67721U 26026A   26070.91667824 -.01843342  00000+0 -55402-1 0  9990
2 67721  97.2851 125.4337 0001597  89.0403 254.8603 15.37727447  5671
STARLINK-36796          
1 67722U 26026B   26070.91667824 -.02295077  00000+0 -70854-1 0  9996
2 67722  97.2838 125.4227 0001652  63.4026 254.7153 15.37101042  5670
STARLINK-36369          
1 67723U 26026C   26070.91667824 -.01822709  00000+0 -50649-1 0  9994
2 67723  97.2851 125.4435 0001553  84.7404 280.6648 15.40078925  5677
STARLINK-36752          
1 67724U 26026D   26070.91667824 -.01772854  00000+0 -52578-1 0  9993
2 67724  97.2850 125.4558 0001677  85.9693 304.3177 15.38006709  5672
STARLINK-36754          
1 67725U 26026E   26070.91667824 -.01833441  00000+0 -52757-1 0  9993
2 67725  97.2851 125.4306 0001693  95.8922 239.7128 15.39038498  5676
STARLINK-36755          
1 67726U 26026F   26070.92371580  .00060515  00000+0  11052-2 0  9991
2 67726  97.2861 125.4268 0001309 102.5505 257.5893 15.49205611  4469
STARLINK-36741          
1 67727U 26026G   26070.91667824 -.01816482  00000+0 -48900-1 0  9996
2 67727  97.2853 125.4278 0001626  83.6691 244.3224 15.41023163  5677
STARLINK-36757          
1 67728U 26026H   26070.91667824 -.01862485  00000+0 -53321-1 0  9994
2 67728  97.2849 125.4769 0001419  67.2275  14.5330 15.39248386  5672
STARLINK-36751          
1 67729U 26026J   26070.91667824 -.01832347  00000+0 -52330-1 0  9998
2 67729  97.2846 125.4893 0001691  68.3114  43.1017 15.39265453  5678
STARLINK-36747          
1 67730U 26026K   26070.91667824 -.01870777  00000+0 -53735-1 0  9999
2 67730  97.2856 125.4841 0001549  67.6235  31.5349 15.39161993  5675
STARLINK-36315          
1 67731U 26026L   26070.91667824 -.01828842  00000+0 -51618-1 0  9994
2 67731  97.2852 125.4950 0001592  71.2317  53.3657 15.39617658  5671
STARLINK-36260          
1 67732U 26026M   26070.91667824 -.01853665  00000+0 -52201-1 0  9995
2 67732  97.2852 125.5021 0001848  62.9150  79.4939 15.39728478  5673
