CCSDS_OMM_VERS = 2.0
CREATION_DATE  = 
ORIGINATOR     = 

OBJECT_NAME    = STARLINK-36772
OBJECT_ID      = 2026-026A
CENTER_NAME    = EARTH
REF_FRAME      = TEME
TIME_SYSTEM    = UTC
MEAN_ELEMENT_THEORY = SGP/SGP4

EPOCH          = 2026-03-11T22:00:00.999936
MEAN_MOTION    = 15.37727447
ECCENTRICITY   = .00015977
INCLINATION    = 97.2851
RA_OF_ASC_NODE = 125.4337
ARG_OF_PERICENTER = 89.0403
MEAN_ANOMALY   = 254.8603

EPHEMERIS_TYPE = 0
CLASSIFICATION_TYPE = U
NORAD_CAT_ID   = 67721
ELEMENT_SET_NO = 999
REV_AT_EPOCH   = 567
BSTAR          = -.55401603E-1
MEAN_MOTION_DOT = -.1843342E-1
MEAN_MOTION_DDOT = 0

CCSDS_OMM_VERS = 2.0
CREATION_DATE  = 
ORIGINATOR     = 

OBJECT_NAME    = STARLINK-36796
OBJECT_ID      = 2026-026B
CENTER_NAME    = EARTH
REF_FRAME      = TEME
TIME_SYSTEM    = UTC
MEAN_ELEMENT_THEORY = SGP/SGP4

EPOCH          = 2026-03-11T22:00:00.999936
MEAN_MOTION    = 15.37101042
ECCENTRICITY   = .00016527
INCLINATION    = 97.2838
RA_OF_ASC_NODE = 125.4227
ARG_OF_PERICENTER = 63.4026
MEAN_ANOMALY   = 254.7153

EPHEMERIS_TYPE = 0
CLASSIFICATION_TYPE = U
NORAD_CAT_ID   = 67722
ELEMENT_SET_NO = 999
REV_AT_EPOCH   = 567
BSTAR          = -.70854014E-1
MEAN_MOTION_DOT = -.2295077E-1
MEAN_MOTION_DDOT = 0

CCSDS_OMM_VERS = 2.0
CREATION_DATE  = 
ORIGINATOR     = 

OBJECT_NAME    = STARLINK-36369
OBJECT_ID      = 2026-026C
CENTER_NAME    = EARTH
REF_FRAME      = TEME
TIME_SYSTEM    = UTC
MEAN_ELEMENT_THEORY = SGP/SGP4

EPOCH          = 2026-03-11T22:00:00.999936
MEAN_MOTION    = 15.40078925
ECCENTRICITY   = .00015539
INCLINATION    = 97.2851
RA_OF_ASC_NODE = 125.4435
ARG_OF_PERICENTER = 84.7404
MEAN_ANOMALY   = 280.6648

EPHEMERIS_TYPE = 0
CLASSIFICATION_TYPE = U
NORAD_CAT_ID   = 67723
ELEMENT_SET_NO = 999
REV_AT_EPOCH   = 567
BSTAR          = -.50649224E-1
MEAN_MOTION_DOT = -.1822709E-1
MEAN_MOTION_DDOT = 0

CCSDS_OMM_VERS = 2.0
CREATION_DATE  = 
ORIGINATOR     = 

OBJECT_NAME    = STARLINK-36752
OBJECT_ID      = 2026-026D
CENTER_NAME    = EARTH
REF_FRAME      = TEME
TIME_SYSTEM    = UTC
MEAN_ELEMENT_THEORY = SGP/SGP4

EPOCH          = 2026-03-11T22:00:00.999936
MEAN_MOTION    = 15.38006709
ECCENTRICITY   = .00016771
INCLINATION    = 97.2850
RA_OF_ASC_NODE = 125.4558
ARG_OF_PERICENTER = 85.9693
MEAN_ANOMALY   = 304.3177

EPHEMERIS_TYPE = 0
CLASSIFICATION_TYPE = U
NORAD_CAT_ID   = 67724
ELEMENT_SET_NO = 999
REV_AT_EPOCH   = 567
BSTAR          = -.52577896E-1
MEAN_MOTION_DOT = -.1772854E-1
MEAN_MOTION_DDOT = 0

CCSDS_OMM_VERS = 2.0
CREATION_DATE  = 
ORIGINATOR     = 

OBJECT_NAME    = STARLINK-36754
OBJECT_ID      = 2026-026E
CENTER_NAME    = EARTH
REF_FRAME      = TEME
TIME_SYSTEM    = UTC
MEAN_ELEMENT_THEORY = SGP/SGP4

EPOCH          = 2026-03-11T22:00:00.999936
MEAN_MOTION    = 15.39038498
ECCENTRICITY   = .00016934
INCLINATION    = 97.2851
RA_OF_ASC_NODE = 125.4306
ARG_OF_PERICENTER = 95.8922
MEAN_ANOMALY   = 239.7128

EPHEMERIS_TYPE = 0
CLASSIFICATION_TYPE = U
NORAD_CAT_ID   = 67725
ELEMENT_SET_NO = 999
REV_AT_EPOCH   = 567
BSTAR          = -.52757366E-1
MEAN_MOTION_DOT = -.1833441E-1
MEAN_MOTION_DDOT = 0

CCSDS_OMM_VERS = 2.0
CREATION_DATE  = 
ORIGINATOR     = 

OBJECT_NAME    = STARLINK-36755
OBJECT_ID      = 2026-026F
CENTER_NAME    = EARTH
REF_FRAME      = TEME
TIME_SYSTEM    = UTC
MEAN_ELEMENT_THEORY = SGP/SGP4

EPOCH          = 2026-03-11T22:10:09.045120
MEAN_MOTION    = 15.49205611
ECCENTRICITY   = .00013094
INCLINATION    = 97.2861
RA_OF_ASC_NODE = 125.4268
ARG_OF_PERICENTER = 102.5505
MEAN_ANOMALY   = 257.5893

EPHEMERIS_TYPE = 0
CLASSIFICATION_TYPE = U
NORAD_CAT_ID   = 67726
ELEMENT_SET_NO = 999
REV_AT_EPOCH   = 446
BSTAR          = .11051708E-2
MEAN_MOTION_DOT = .60515E-3
MEAN_MOTION_DDOT = 0

CCSDS_OMM_VERS = 2.0
CREATION_DATE  = 
ORIGINATOR     = 

OBJECT_NAME    = STARLINK-36741
OBJECT_ID      = 2026-026G
CENTER_NAME    = EARTH
REF_FRAME      = TEME
TIME_SYSTEM    = UTC
MEAN_ELEMENT_THEORY = SGP/SGP4

EPOCH          = 2026-03-11T22:00:00.999936
MEAN_MOTION    = 15.41023163
ECCENTRICITY   = .00016265
INCLINATION    = 97.2853
RA_OF_ASC_NODE = 125.4278
ARG_OF_PERICENTER = 83.6691
MEAN_ANOMALY   = 244.3224

EPHEMERIS_TYPE = 0
CLASSIFICATION_TYPE = U
NORAD_CAT_ID   = 67727
ELEMENT_SET_NO = 999
REV_AT_EPOCH   = 567
BSTAR          = -.48899578E-1
MEAN_MOTION_DOT = -.1816482E-1
MEAN_MOTION_DDOT = 0

CCSDS_OMM_VERS = 2.0
CREATION_DATE  = 
ORIGINATOR     = 

OBJECT_NAME    = STARLINK-36757
OBJECT_ID      = 2026-026H
CENTER_NAME    = EARTH
REF_FRAME      = TEME
TIME_SYSTEM    = UTC
MEAN_ELEMENT_THEORY = SGP/SGP4

EPOCH          = 2026-03-11T22:00:00.999936
MEAN_MOTION    = 15.39248386
ECCENTRICITY   = .00014193
INCLINATION    = 97.2849
RA_OF_ASC_NODE = 125.4769
ARG_OF_PERICENTER = 67.2275
MEAN_ANOMALY   = 14.5330

EPHEMERIS_TYPE = 0
CLASSIFICATION_TYPE = U
NORAD_CAT_ID   = 67728
ELEMENT_SET_NO = 999
REV_AT_EPOCH   = 567
BSTAR          = -.53320618E-1
MEAN_MOTION_DOT = -.1862485E-1
MEAN_MOTION_DDOT = 0

CCSDS_OMM_VERS = 2.0
CREATION_DATE  = 
ORIGINATOR     = 

OBJECT_NAME    = STARLINK-36751
OBJECT_ID      = 2026-026J
CENTER_NAME    = EARTH
REF_FRAME      = TEME
TIME_SYSTEM    = UTC
MEAN_ELEMENT_THEORY = SGP/SGP4

EPOCH          = 2026-03-11T22:00:00.999936
MEAN_MOTION    = 15.39265453
ECCENTRICITY   = .00016913
INCLINATION    = 97.2846
RA_OF_ASC_NODE = 125.4893
ARG_OF_PERICENTER = 68.3114
MEAN_ANOMALY   = 43.1017

EPHEMERIS_TYPE = 0
CLASSIFICATION_TYPE = U
NORAD_CAT_ID   = 67729
ELEMENT_SET_NO = 999
REV_AT_EPOCH   = 567
BSTAR          = -.52330392E-1
MEAN_MOTION_DOT = -.1832347E-1
MEAN_MOTION_DDOT = 0

CCSDS_OMM_VERS = 2.0
CREATION_DATE  = 
ORIGINATOR     = 

OBJECT_NAME    = STARLINK-36747
OBJECT_ID      = 2026-026K
CENTER_NAME    = EARTH
REF_FRAME      = TEME
TIME_SYSTEM    = UTC
MEAN_ELEMENT_THEORY = SGP/SGP4

EPOCH          = 2026-03-11T22:00:00.999936
MEAN_MOTION    = 15.39161993
ECCENTRICITY   = .00015495
INCLINATION    = 97.2856
RA_OF_ASC_NODE = 125.4841
ARG_OF_PERICENTER = 67.6235
MEAN_ANOMALY   = 31.5349

EPHEMERIS_TYPE = 0
CLASSIFICATION_TYPE = U
NORAD_CAT_ID   = 67730
ELEMENT_SET_NO = 999
REV_AT_EPOCH   = 567
BSTAR          = -.5373509E-1
MEAN_MOTION_DOT = -.1870777E-1
MEAN_MOTION_DDOT = 0

CCSDS_OMM_VERS = 2.0
CREATION_DATE  = 
ORIGINATOR     = 

OBJECT_NAME    = STARLINK-36315
OBJECT_ID      = 2026-026L
CENTER_NAME    = EARTH
REF_FRAME      = TEME
TIME_SYSTEM    = UTC
MEAN_ELEMENT_THEORY = SGP/SGP4

EPOCH          = 2026-03-11T22:00:00.999936
MEAN_MOTION    = 15.39617658
ECCENTRICITY   = .00015929
INCLINATION    = 97.2852
RA_OF_ASC_NODE = 125.4950
ARG_OF_PERICENTER = 71.2317
MEAN_ANOMALY   = 53.3657

EPHEMERIS_TYPE = 0
CLASSIFICATION_TYPE = U
NORAD_CAT_ID   = 67731
ELEMENT_SET_NO = 999
REV_AT_EPOCH   = 567
BSTAR          = -.51618299E-1
MEAN_MOTION_DOT = -.1828842E-1
MEAN_MOTION_DDOT = 0

CCSDS_OMM_VERS = 2.0
CREATION_DATE  = 
ORIGINATOR     = 

OBJECT_NAME    = STARLINK-36260
OBJECT_ID      = 2026-026M
CENTER_NAME    = EARTH
REF_FRAME      = TEME
TIME_SYSTEM    = UTC
MEAN_ELEMENT_THEORY = SGP/SGP4

EPOCH          = 2026-03-11T22:00:00.999936
MEAN_MOTION    = 15.39728478
ECCENTRICITY   = .00018485
INCLINATION    = 97.2852
RA_OF_ASC_NODE = 125.5021
ARG_OF_PERICENTER = 62.9150
MEAN_ANOMALY   = 79.4939

EPHEMERIS_TYPE = 0
CLASSIFICATION_TYPE = U
NORAD_CAT_ID   = 67732
ELEMENT_SET_NO = 999
REV_AT_EPOCH   = 567
BSTAR          = -.5220101E-1
MEAN_MOTION_DOT = -.1853665E-1
MEAN_MOTION_DDOT = 0

